QIANFAN-65              
1 62795U 25016L   25319.84520343  .00000156  00000+0  22271-3 0  9990
2 62795  88.9740 105.8386 0015286  64.9090 295.3646 13.50976788 43611
QIANFAN-66              
1 62796U 25016M   25319.79994706  .00000142  00000+0  20103-3 0  9990
2 62796  88.9759 105.8082 0016323  60.7265 299.5515 13.50980758 43653
QIANFAN-67              
1 62797U 25016N   25319.80411397  .00000150  00000+0  21370-3 0  9999
2 62797  88.9750 105.8360 0016410  67.0347 293.2534 13.50973646 43629
QIANFAN-68              
1 62798U 25016P   25319.79585590  .00000145  00000+0  20521-3 0  9996
2 62798  88.9753 105.8810 0016437  65.4251 294.8611 13.50975975 43606
QIANFAN-69              
1 62799U 25016Q   25319.81241137  .00000295  00000+0  43842-3 0  9993
2 62799  88.9732 105.7545 0017226  66.2545 294.0411 13.50973753 43646
QIANFAN-70              
1 62800U 25016R   25319.82865907  .00000155  00000+0  22055-3 0  9992
2 62800  88.9753 105.8855 0016637  57.3470 302.9283 13.50976516 43602
QIANFAN-71              
1 62801U 25016S   25319.82463102  .00000137  00000+0  19336-3 0  9992
2 62801  88.9747 105.8672 0017180  69.4181 290.8811 13.50976957 43601
QIANFAN-72              
1 62802U 25016T   25319.84110734  .00000147  00000+0  20904-3 0  9999
2 62802  88.9737 105.8814 0020534  75.5904 284.7524 13.50976823 43590
